[{"OBJECT_NAME":"STARLINK-36453","OBJECT_ID":"2026-003H","EPOCH":"2026-03-09T11:42:15.605568","MEAN_MOTION":15.27614464,"ECCENTRICITY":0.00010519,"INCLINATION":43.0003,"RA_OF_ASC_NODE":228.149,"ARG_OF_PERICENTER":209.8674,"MEAN_ANOMALY":150.2118,"EPHEMERIS_TYPE":0,"CLASSIFICATION_TYPE":"U","NORAD_CAT_ID":67341,"ELEMENT_SET_NO":999,"REV_AT_EPOCH":879,"BSTAR":0.0014648968,"MEAN_MOTION_DOT":0.00040312,"MEAN_MOTION_DDOT":0},{"OBJECT_NAME":"TITAN 3C TRANSTAGE DEB","OBJECT_ID":"1965-082PT","EPOCH":"2026-03-09T13:23:41.116128","MEAN_MOTION":15.28908269,"ECCENTRICITY":0.00104371,"INCLINATION":32.0266,"RA_OF_ASC_NODE":255.1391,"ARG_OF_PERICENTER":172.8339,"MEAN_ANOMALY":187.2474,"EPHEMERIS_TYPE":0,"CLASSIFICATION_TYPE":"U","NORAD_CAT_ID":3462,"ELEMENT_SET_NO":999,"REV_AT_EPOCH":24824,"BSTAR":0.0004444037,"MEAN_MOTION_DOT":0.00012939,"MEAN_MOTION_DDOT":0}]
